{"type": "FeatureCollection", "features": [{"type": "Feature", "properties": {"name": "Boulder Reservoir", "source": "OSM/Nominatim"}, "geometry": {"type": "Polygon", "coordinates": [[[-105.2356263, 40.075071], [-105.2356006, 40.0749725], [-105.2351628, 40.0747689], [-105.2350341, 40.0748214], [-105.2349225, 40.0748017], [-105.2349912, 40.0747558], [-105.2350598, 40.0746835], [-105.2350942, 40.0746113], [-105.2350341, 40.0744733], [-105.2349397, 40.0743026], [-105.2348882, 40.0738757], [-105.2346907, 40.0736129], [-105.2346007, 40.0734649], [-105.2343732, 40.0730875], [-105.2340813, 40.0730087], [-105.2337552, 40.0730153], [-105.2335492, 40.0729627], [-105.233266, 40.0728773], [-105.2328711, 40.0728905], [-105.2324935, 40.0728642], [-105.2321367, 40.072916], [-105.2320534, 40.0729372], [-105.2318353, 40.0729926], [-105.2314635, 40.0730744], [-105.2312833, 40.0731335], [-105.2309829, 40.0731466], [-105.2299615, 40.073232], [-105.2298876, 40.0732281], [-105.2295924, 40.0732123], [-105.2293607, 40.0732189], [-105.2290259, 40.0731992], [-105.2287666, 40.0731992], [-105.2284509, 40.0731663], [-105.2282706, 40.0731335], [-105.2281848, 40.0730678], [-105.228099, 40.0729627], [-105.2280131, 40.0728445], [-105.2279881, 40.072769], [-105.2280043, 40.0726224], [-105.2280475, 40.0725424], [-105.2280818, 40.0724307], [-105.2280904, 40.0721417], [-105.2280904, 40.0720301], [-105.2280389, 40.0718987], [-105.2279616, 40.0717805], [-105.2278329, 40.0716688], [-105.2276269, 40.0715637], [-105.2273436, 40.0714521], [-105.2268372, 40.0713338], [-105.2266999, 40.0712813], [-105.2264939, 40.0712682], [-105.226235, 40.0712719], [-105.2260646, 40.0713514], [-105.2259354, 40.0713826], [-105.2257214, 40.0714061], [-105.2255584, 40.0713535], [-105.2254811, 40.0712747], [-105.2253524, 40.0712025], [-105.2251979, 40.0711499], [-105.2249146, 40.071104], [-105.2246314, 40.0710908], [-105.2244168, 40.0711434], [-105.2243035, 40.0712052], [-105.2241636, 40.0712668], [-105.2240985, 40.0712548], [-105.2240507, 40.0712458], [-105.2238074, 40.0710974], [-105.2234727, 40.0710974], [-105.2232924, 40.0711105], [-105.2229834, 40.0711696], [-105.2224521, 40.0714309], [-105.2222968, 40.0715309], [-105.222168, 40.0715834], [-105.2220822, 40.07159], [-105.2218505, 40.071544], [-105.2217046, 40.0714915], [-105.2215501, 40.0713798], [-105.2214814, 40.0712813], [-105.2213784, 40.0711696], [-105.2213355, 40.0710448], [-105.2213011, 40.0709028], [-105.2212926, 40.0708675], [-105.221242, 40.070826], [-105.2211896, 40.0707821], [-105.2211822, 40.0707688], [-105.221165, 40.0707377], [-105.2211209, 40.0706179], [-105.2210437, 40.070526], [-105.2208892, 40.0704668], [-105.2205201, 40.0704274], [-105.2201768, 40.0704077], [-105.2200051, 40.0704209], [-105.2198935, 40.0704471], [-105.2127782, 40.0762532], [-105.2127009, 40.0763386], [-105.2127009, 40.0765619], [-105.2127696, 40.0767064], [-105.2128898, 40.0768574], [-105.2129927, 40.0771464], [-105.2130357, 40.0773106], [-105.2130099, 40.0773828], [-105.2129498, 40.0774616], [-105.2126323, 40.0775404], [-105.2123662, 40.0776258], [-105.212246, 40.0776784], [-105.2120229, 40.0778229], [-105.2119284, 40.0778951], [-105.2118855, 40.0779739], [-105.2118335, 40.0783514], [-105.2112504, 40.0825841], [-105.211422, 40.0826629], [-105.2115165, 40.082768], [-105.2116452, 40.0828796], [-105.2120829, 40.0830241], [-105.212349, 40.0830964], [-105.2126752, 40.0832211], [-105.2128211, 40.0832999], [-105.2128735, 40.083395], [-105.2128898, 40.0834247], [-105.2128726, 40.0835823], [-105.2127782, 40.0836808], [-105.2126151, 40.0839369], [-105.2125293, 40.0840092], [-105.2124177, 40.0840157], [-105.2123061, 40.0840683], [-105.2123233, 40.0842127], [-105.212246, 40.0843178], [-105.2122117, 40.0844623], [-105.2120829, 40.0845345], [-105.2119971, 40.0846396], [-105.211877, 40.0847578], [-105.211877, 40.0848038], [-105.2118426, 40.08483], [-105.2117225, 40.0848563], [-105.2115336, 40.0849548], [-105.2113105, 40.0849351], [-105.2110356, 40.0849187], [-105.2109425, 40.0849137], [-105.2109401, 40.0849238], [-105.2107389, 40.0849156], [-105.2107364, 40.0849348], [-105.2109372, 40.0849537], [-105.2109345, 40.0849742], [-105.2107311, 40.0849738], [-105.2107289, 40.0849901], [-105.2109294, 40.0850122], [-105.210927, 40.0850307], [-105.2107237, 40.0850294], [-105.2107218, 40.0850436], [-105.210922, 40.0850685], [-105.2109195, 40.085087], [-105.2107169, 40.0850803], [-105.2107144, 40.0850985], [-105.2109158, 40.0851145], [-105.2109132, 40.0851341], [-105.2107095, 40.0851347], [-105.2107069, 40.0851542], [-105.2109075, 40.0851773], [-105.2109053, 40.0851937], [-105.2107017, 40.085193], [-105.2106993, 40.0852115], [-105.2109005, 40.0852298], [-105.2108987, 40.0852433], [-105.2106952, 40.0852417], [-105.210693, 40.0852579], [-105.2108935, 40.0852827], [-105.2108904, 40.0853054], [-105.2106871, 40.0853019], [-105.2106845, 40.0853214], [-105.2108857, 40.0853407], [-105.2108835, 40.0853572], [-105.2106801, 40.0853541], [-105.2106778, 40.0853715], [-105.2108787, 40.0853939], [-105.2108762, 40.0854127], [-105.2106727, 40.0854096], [-105.2106703, 40.0854271], [-105.2108709, 40.0854524], [-105.2108688, 40.085468], [-105.2106659, 40.0854601], [-105.2106634, 40.0854786], [-105.2108643, 40.0855022], [-105.2108623, 40.0855169], [-105.2106582, 40.0855178], [-105.2106558, 40.0855346], [-105.2108549, 40.085559], [-105.2108543, 40.0855688], [-105.2109263, 40.0855726], [-105.2115175, 40.0856311], [-105.2118941, 40.0855458], [-105.2122804, 40.0854604], [-105.2124348, 40.0853948], [-105.2126838, 40.08527], [-105.2129155, 40.0850205], [-105.2131215, 40.0848432], [-105.2132674, 40.0846527], [-105.2133962, 40.0845542], [-105.2133962, 40.0844754], [-105.2134477, 40.084436], [-105.2134906, 40.0845148], [-105.2136794, 40.0846068], [-105.2138682, 40.0847775], [-105.213997, 40.0848038], [-105.2142115, 40.0849614], [-105.2147265, 40.0852175], [-105.2154303, 40.0854604], [-105.2162028, 40.085664], [-105.216426, 40.0857034], [-105.2166406, 40.085664], [-105.2168809, 40.0856771], [-105.2170354, 40.08571], [-105.2172757, 40.0857888], [-105.2173959, 40.0858413], [-105.2174903, 40.085815], [-105.2176092, 40.085833], [-105.2177314, 40.0858822], [-105.2179661, 40.0858791], [-105.2183818, 40.0858258], [-105.2188257, 40.0857232], [-105.2191726, 40.0855918], [-105.2193871, 40.0855327], [-105.219533, 40.0854013], [-105.2196103, 40.0852569], [-105.219576, 40.0851584], [-105.2196618, 40.0850467], [-105.2198163, 40.0850205], [-105.2200738, 40.0851058], [-105.2202626, 40.0851452], [-105.2203313, 40.0852306], [-105.2205115, 40.0853291], [-105.220946, 40.0854133], [-105.2216957, 40.0854041], [-105.2222845, 40.0853661], [-105.2227656, 40.0852103], [-105.2228718, 40.0852132], [-105.2231078, 40.0851415], [-105.2236039, 40.0848664], [-105.2238346, 40.0847577], [-105.2240078, 40.0847925], [-105.2242181, 40.0847556], [-105.224469, 40.0847515], [-105.2249661, 40.0846724], [-105.2252713, 40.0846802], [-105.2253717, 40.0846828], [-105.2255755, 40.0847118], [-105.2257129, 40.0847972], [-105.2257644, 40.0849351], [-105.2259017, 40.0850861], [-105.2260476, 40.0851781], [-105.2262622, 40.0852569], [-105.2265368, 40.0853357], [-105.2269832, 40.085316], [-105.227069, 40.0852372], [-105.2272664, 40.0850796], [-105.2273522, 40.0849154], [-105.2275029, 40.0847904], [-105.2275582, 40.0847447], [-105.2279359, 40.0847972], [-105.2280818, 40.0847644], [-105.2281848, 40.0846987], [-105.2281848, 40.0845871], [-105.2282191, 40.0845214], [-105.2283307, 40.0843769], [-105.2285281, 40.0842456], [-105.2287169, 40.0841405], [-105.2288714, 40.0840289], [-105.228983, 40.0838581], [-105.2290259, 40.0837531], [-105.2289916, 40.0836414], [-105.2290345, 40.083556], [-105.229189, 40.0833722], [-105.2292834, 40.083208], [-105.2293177, 40.0830635], [-105.2293177, 40.0829256], [-105.2292491, 40.082768], [-105.2292491, 40.0826301], [-105.2293092, 40.0825513], [-105.229292, 40.0822952], [-105.2292233, 40.0821113], [-105.2289229, 40.0818749], [-105.2287255, 40.0817698], [-105.2283049, 40.0816516], [-105.228262, 40.0815203], [-105.2281333, 40.0814152], [-105.227953, 40.0810409], [-105.2277299, 40.0808635], [-105.2276698, 40.0806797], [-105.2275325, 40.0805155], [-105.227378, 40.0803053], [-105.2273694, 40.080174], [-105.2274466, 40.0800295], [-105.2276011, 40.0797931], [-105.22779, 40.079642], [-105.2280646, 40.0794975], [-105.2284423, 40.0793465], [-105.2291032, 40.0792414], [-105.2292233, 40.0792611], [-105.2293864, 40.0792611], [-105.2295667, 40.0792546], [-105.2296525, 40.0792217], [-105.2297297, 40.0791495], [-105.2296525, 40.0791035], [-105.2295581, 40.0790116], [-105.2295581, 40.0789328], [-105.2297555, 40.0787095], [-105.2300473, 40.0784993], [-105.2301761, 40.078473], [-105.2303305, 40.078565], [-105.2304593, 40.0786175], [-105.2306825, 40.0785781], [-105.2313777, 40.0783942], [-105.2318068, 40.0782432], [-105.2323905, 40.0781512], [-105.2329226, 40.0780461], [-105.2331973, 40.0779805], [-105.2335664, 40.0778557], [-105.2341243, 40.07779], [-105.234356, 40.0776915], [-105.2345792, 40.0776258], [-105.2347337, 40.0776258], [-105.23518, 40.0775667], [-105.2352658, 40.077396], [-105.2352572, 40.0772449], [-105.2350856, 40.0771267], [-105.2349053, 40.0770742], [-105.2347337, 40.077061], [-105.234562, 40.077015], [-105.2345963, 40.0765881], [-105.2345191, 40.0764371], [-105.2345878, 40.0762992], [-105.2345363, 40.076181], [-105.2342959, 40.076135], [-105.234047, 40.0761481], [-105.2337638, 40.0761415], [-105.2335835, 40.0761481], [-105.2331115, 40.0760168], [-105.2329312, 40.0759577], [-105.2327767, 40.0758788], [-105.2324849, 40.0757541], [-105.2321759, 40.0757146], [-105.2319613, 40.0757015], [-105.2321759, 40.075603], [-105.2323819, 40.075557], [-105.2326136, 40.0755767], [-105.2328368, 40.0756161], [-105.2330943, 40.0756161], [-105.2332745, 40.075603], [-105.2335149, 40.0755702], [-105.2338668, 40.0755702], [-105.2340813, 40.0755373], [-105.2343303, 40.0755439], [-105.2345448, 40.0755373], [-105.2347508, 40.075557], [-105.2348882, 40.0755176], [-105.2351027, 40.07536], [-105.235283, 40.0752877], [-105.2353946, 40.0752286], [-105.2356263, 40.075071]]]}}]}